[{"OBJECT_NAME":"STARLINK-34990","OBJECT_ID":"2025-179K","EPOCH":"2026-03-09T15:38:25.794816","MEAN_MOTION":15.05652828,"ECCENTRICITY":0.00019326,"INCLINATION":97.6033,"RA_OF_ASC_NODE":112.9434,"ARG_OF_PERICENTER":92.026,"MEAN_ANOMALY":268.1188,"EPHEMERIS_TYPE":0,"CLASSIFICATION_TYPE":"U","NORAD_CAT_ID":65244,"ELEMENT_SET_NO":999,"REV_AT_EPOCH":3187,"BSTAR":0.00051733303,"MEAN_MOTION_DOT":7.412e-5,"MEAN_MOTION_DDOT":0},{"OBJECT_NAME":"COSMOS 1275 DEB","OBJECT_ID":"1981-053RH","EPOCH":"2026-03-08T19:02:02.535360","MEAN_MOTION":15.08606043,"ECCENTRICITY":0.00097404,"INCLINATION":83.3308,"RA_OF_ASC_NODE":196.5935,"ARG_OF_PERICENTER":282.896,"MEAN_ANOMALY":77.1182,"EPHEMERIS_TYPE":0,"CLASSIFICATION_TYPE":"U","NORAD_CAT_ID":42145,"ELEMENT_SET_NO":999,"REV_AT_EPOCH":64889,"BSTAR":0.0090120528,"MEAN_MOTION_DOT":0.00143721,"MEAN_MOTION_DDOT":0}]
